KUIPER-00071            
1 64818U 25151C   25333.44134788 -.00002707  00000+0 -32562-3 0  9994
2 64818  51.9013  26.3693 0007199 250.3198 109.6988 14.79960452 20427
KUIPER-00072            
1 64819U 25151D   25334.58335648  .00022246  00000+0  30816-2 0  9996
2 64819  51.8991   0.7026 0002423 259.5065  99.1487 14.77902971  4976
KUIPER-00073            
1 64820U 25151E   25334.58335648  .00045474  00000+0  61573-2 0  9990
2 64820  51.9014  21.3067 0013082 285.0283 228.1781 14.78459082  5151
KUIPER-00074            
1 64821U 25151F   25334.50193415  .00005710  00000+0  77690-3 0  9994
2 64821  51.9026   9.1958 0013163 304.0731  55.8981 14.79922602 20752
KUIPER-00075            
1 64822U 25151G   25334.31312886  .00052039  00000+0  12760-2 0  9991
2 64822  51.8758 344.4477 0003742 286.5404  73.5173 15.40200950 21089
KUIPER-00076            
1 64823U 25151H   25334.09396693  .00005697  00000+0  77494-3 0  9999
2 64823  51.9013  13.4967 0004346 293.1777  66.8728 14.79976622 20661
KUIPER-00077            
1 64824U 25151J   25334.42624451  .00004001  00000+0  55339-3 0  9995
2 64824  51.9018  17.0288 0005956 252.3462 107.6850 14.79942481 20643
KUIPER-00078            
1 64825U 25151K   25334.12500889  .00002399  00000+0  34337-3 0  9994
2 64825  51.9016  15.8563 0007787 317.2177  42.8179 14.79967676 20638
